
# Worst residual: 4.17 km
# MJD 58206.000000 (2018 Mar 29  0:00)
C1NHY61 = A10hwSu = prob. Vela
1 89962U 00000ABL 18088.49919926  .00000000  00000-0  00000-0 0 11788
2 89962 047.8659 254.2241 6481995 090.1030 274.1791 00.21391882    05

# Worst residual: 31.06 km
# MJD 58207.000000 (2018 Mar 30  0:00)
C1NHY61 = A10hwSu = prob. Vela
1 89962U 00000ABL 18089.49919926  .00000000  00000-0  00000-0 0 11789
2 89962 047.8953 254.1511 6479120 090.0892 351.2510 00.21374941    06

# Worst residual: 11.76 km
# MJD 58208.000000 (2018 Mar 31  0:00)
C1NHY61 = A10hwSu = prob. Vela
1 89962U 00000ABL 18090.49919926  .00000000  00000-0  00000-0 0 11781
2 89962 047.8669 254.1347 6476461 090.1275 068.1314 00.21328848    09

# Worst residual: 9.58 km
# MJD 58209.000000 (2018 Apr  1  0:00)
C1NHY61 = A10hwSu = prob. Vela
1 89962U 00000ABL 18091.49919926  .00000000  00000-0  00000-0 0 11782
2 89962 047.8747 254.1159 6471654 090.0052 145.3730 00.21368156    04

# Worst residual: 2.73 km
# MJD 58210.000000 (2018 Apr  2  0:00)
C1NHY61 = A10hwSu = prob. Vela
1 89962U 00000ABL 18092.49919926  .00000000  00000-0  00000-0 0 11783
2 89962 047.8723 254.0691 6468760 089.9577 222.5316 00.21370265    03

# Worst residual: 18.10 km
# MJD 58211.000000 (2018 Apr  3  0:00)
C1NHY61 = A10hwSu = prob. Vela
1 89962U 00000ABL 18093.49919926  .00000000  00000-0  00000-0 0 11784
2 89962 047.8859 253.9573 6455489 090.0138 299.3506 00.21380036    00

# Worst residual: 26.62 km
# MJD 58212.000000 (2018 Apr  4  0:00)
C1NHY61 = A10hwSu = prob. Vela
1 89962U 00000ABL 18094.49919926  .00000000  00000-0  00000-0 0 11785
2 89962 047.8991 253.9036 6450154 089.9554 016.3222 00.21347980    07

# Worst residual: 7.76 km
# MJD 58213.000000 (2018 Apr  5  0:00)
C1NHY61 = A10hwSu = prob. Vela
1 89962U 00000ABL 18095.49919926  .00000000  00000-0  00000-0 0 11786
2 89962 047.8918 253.8491 6445938 090.0052 093.1736 00.21328427    08

# Worst residual: 5.52 km
# MJD 58214.000000 (2018 Apr  6  0:00)
C1NHY61 = A10hwSu = prob. Vela
1 89962U 00000ABL 18096.49919926  .00000000  00000-0  00000-0 0 11787
2 89962 047.8890 253.7937 6449643 089.9169 170.3087 00.21361012    08

# Worst residual: 3.91 km
# MJD 58215.000000 (2018 Apr  7  0:00)
C1NHY61 = A10hwSu = prob. Vela
1 89962U 00000ABL 18097.49919926  .00000000  00000-0  00000-0 0 11788
2 89962 047.8857 253.7306 6453974 089.9191 247.3719 00.21374456    01

# Worst residual: 14.61 km
# MJD 58216.000000 (2018 Apr  8  0:00)
C1NHY61 = A10hwSu = prob. Vela
1 89962U 00000ABL 18098.49919926  .00000000  00000-0  00000-0 0 11789
2 89962 047.8885 253.6622 6449120 089.9810 324.3062 00.21403384    08

# Worst residual: 18.22 km
# MJD 58217.000000 (2018 Apr  9  0:00)
C1NHY61 = A10hwSu = prob. Vela
1 89962U 00000ABL 18099.49919926  .00000000  00000-0  00000-0 0 11780
2 89962 047.8849 253.6387 6447324 089.8879 041.3845 00.21383858    02

# Worst residual: 2.21 km
# MJD 58218.000000 (2018 Apr 10  0:00)
C1NHY61 = A10hwSu = prob. Vela
1 89962U 00000ABL 18100.49919926  .00000000  00000-0  00000-0 0 11783
2 89962 047.8681 253.5654 6447066 089.9394 118.2558 00.21360162    06

# Worst residual: 4.16 km
# MJD 58219.000000 (2018 Apr 11  0:00)
C1NHY61 = A10hwSu = prob. Vela
1 89962U 00000ABL 18101.49919926  .00000000  00000-0  00000-0 0 11784
2 89962 047.8643 253.5151 6444916 089.9662 195.1205 00.21359185    01

# Worst residual: 6.88 km
# MJD 58220.000000 (2018 Apr 12  0:00)
C1NHY61 = A10hwSu = prob. Vela
1 89962U 00000ABL 18102.49919926  .00000000  00000-0  00000-0 0 11785
2 89962 047.8594 253.4621 6443879 090.0318 271.9411 00.21377545    07

# Worst residual: 29.17 km
# MJD 58221.000000 (2018 Apr 13  0:00)
C1NHY61 = A10hwSu = prob. Vela
1 89962U 00000ABL 18103.49919926  .00000000  00000-0  00000-0 0 11786
2 89962 047.8898 253.3843 6439275 090.0562 348.9341 00.21383380    06

# Worst residual: 12.68 km
# MJD 58222.000000 (2018 Apr 14  0:00)
C1NHY61 = A10hwSu = prob. Vela
1 89962U 00000ABL 18104.49919926  .00000000  00000-0  00000-0 0 11787
2 89962 047.8549 253.3706 6436722 090.1105 065.8259 00.21329523    07

# Worst residual: 3.89 km
# MJD 58223.000000 (2018 Apr 15  0:00)
C1NHY61 = A10hwSu = prob. Vela
1 89962U 00000ABL 18105.49919926  .00000000  00000-0  00000-0 0 11788
2 89962 047.8497 253.3168 6429627 090.0743 142.8853 00.21347533    01

# Worst residual: 7.19 km
# MJD 58224.000000 (2018 Apr 16  0:00)
C1NHY61 = A10hwSu = prob. Vela
1 89962U 00000ABL 18106.49919926  .00000000  00000-0  00000-0 0 11789
2 89962 047.8458 253.2928 6429312 090.0763 219.7516 00.21354980    08

# Worst residual: 17.27 km
# MJD 58225.000000 (2018 Apr 17  0:00)
C1NHY61 = A10hwSu = prob. Vela
1 89962U 00000ABL 18107.49919926  .00000000  00000-0  00000-0 0 11780
2 89962 047.8413 253.2361 6425215 090.2135 296.4173 00.21403718    08

# Worst residual: 28.55 km
# MJD 58226.000000 (2018 Apr 18  0:00)
C1NHY61 = A10hwSu = prob. Vela
1 89962U 00000ABL 18108.49919926  .00000000  00000-0  00000-0 0 11781
2 89962 047.8470 253.1832 6419738 090.1450 013.4761 00.21373766    04

# Worst residual: 8.81 km
# MJD 58227.000000 (2018 Apr 19  0:00)
C1NHY61 = A10hwSu = prob. Vela
1 89962U 00000ABL 18109.49919926  .00000000  00000-0  00000-0 0 11782
2 89962 047.8425 253.1336 6416654 090.1818 090.3980 00.21346813    05

# Worst residual: 4.89 km
# MJD 58228.000000 (2018 Apr 20  0:00)
C1NHY61 = A10hwSu = prob. Vela
1 89962U 00000ABL 18110.49919926  .00000000  00000-0  00000-0 0 11784
2 89962 047.8456 253.1068 6410380 090.1001 167.5906 00.21363560    08

# Worst residual: 6.16 km
# MJD 58229.000000 (2018 Apr 21  0:00)
C1NHY61 = A10hwSu = prob. Vela
1 89962U 00000ABL 18111.49919926  .00000000  00000-0  00000-0 0 11785
2 89962 047.8373 253.0970 6404026 090.0702 244.5550 00.21359254    00

# Worst residual: 23.11 km
# MJD 58230.000000 (2018 Apr 22  0:00)
C1NHY61 = A10hwSu = prob. Vela
1 89962U 00000ABL 18112.49919926  .00000000  00000-0  00000-0 0 11786
2 89962 047.8292 253.0539 6392921 090.1492 321.3036 00.21410523    08

# Worst residual: 31.73 km
# MJD 58231.000000 (2018 Apr 23  0:00)
C1NHY61 = A10hwSu = prob. Vela
1 89962U 00000ABL 18113.49919926  .00000000  00000-0  00000-0 0 11787
2 89962 047.8244 253.0315 6388466 089.9895 038.4422 00.21408635    05

# Worst residual: 1.75 km
# MJD 58232.000000 (2018 Apr 24  0:00)
C1NHY61 = A10hwSu = prob. Vela
1 89962U 00000ABL 18114.49919926  .00000000  00000-0  00000-0 0 11788
2 89962 047.7938 252.9405 6389987 090.0572 115.3405 00.21373488    09

# Worst residual: 1.97 km
# MJD 58233.000000 (2018 Apr 25  0:00)
C1NHY61 = A10hwSu = prob. Vela
1 89962U 00000ABL 18115.49919926  .00000000  00000-0  00000-0 0 11789
2 89962 047.7900 252.8913 6386163 090.0475 192.3933 00.21374050    03

# Worst residual: 8.02 km
# MJD 58234.000000 (2018 Apr 26  0:00)
C1NHY61 = A10hwSu = prob. Vela
1 89962U 00000ABL 18116.49919926  .00000000  00000-0  00000-0 0 11780
2 89962 047.7904 252.8190 6386532 090.0986 269.3604 00.21388094    04
